{
  "type": "FeatureCollection",
  "features": [
    {
      "type": "Feature",
      "properties": {
        "norad_id": 66856,
        "name": "STARLINK-36072",
        "group": "last-30-days",
        "lat": -41.10613560560562,
        "lon": -61.79657707161533,
        "alt_km": 401.8871882506746,
        "timestamp": "2025-12-24T20:42:19.746616+00:00",
        "meta_object_name": "STARLINK-36072",
        "meta_object_id": "2025-281J",
        "meta_epoch": "2025-12-24T06:00:02.000160",
        "meta_mean_motion": 15.58611871,
        "meta_eccentricity": 0.00011318,
        "meta_inclination": 42.9998,
        "meta_ra_of_asc_node": 52.3736,
        "meta_arg_of_pericenter": 280.8451,
        "meta_mean_anomaly": 134.7894,
        "meta_ephemeris_type": 0,
        "meta_classification_type": "U",
        "meta_norad_cat_id": 66856,
        "meta_element_set_no": 999,
        "meta_rev_at_epoch": 324,
        "meta_bstar": -0.029384021,
        "meta_mean_motion_dot": -0.02065766,
        "meta_mean_motion_ddot": 0,
        "tle_line1": "1 66856U 25281J   25358.25002315 -.02065766  00000+0 -29384-1 0  9990",
        "tle_line2": "2 66856  42.9998  52.3736 0001131 280.8451 134.7894 15.58611871  3242"
      },
      "geometry": {
        "type": "Point",
        "coordinates": [
          -61.79657707161533,
          -41.10613560560562
        ]
      }
    },
    {
      "type": "Feature",
      "properties": {
        "norad_id": 66857,
        "name": "STARLINK-36083",
        "group": "last-30-days",
        "lat": -41.5370056527627,
        "lon": -59.32190505633103,
        "alt_km": 401.82832433854037,
        "timestamp": "2025-12-24T20:42:19.746628+00:00",
        "meta_object_name": "STARLINK-36083",
        "meta_object_id": "2025-281K",
        "meta_epoch": "2025-12-24T06:00:02.000160",
        "meta_mean_motion": 15.58611272,
        "meta_eccentricity": 0.00012668,
        "meta_inclination": 42.9999,
        "meta_ra_of_asc_node": 52.3695,
        "meta_arg_of_pericenter": 282.4556,
        "meta_mean_anomaly": 135.0956,
        "meta_ephemeris_type": 0,
        "meta_classification_type": "U",
        "meta_norad_cat_id": 66857,
        "meta_element_set_no": 999,
        "meta_rev_at_epoch": 324,
        "meta_bstar": -0.029392132,
        "meta_mean_motion_dot": -0.02066319,
        "meta_mean_motion_ddot": 0,
        "tle_line1": "1 66857U 25281K   25358.25002315 -.02066319  00000+0 -29392-1 0  9995",
        "tle_line2": "2 66857  42.9999  52.3695 0001266 282.4556 135.0956 15.58611272  3249"
      },
      "geometry": {
        "type": "Point",
        "coordinates": [
          -59.32190505633103,
          -41.5370056527627
        ]
      }
    },
    {
      "type": "Feature",
      "properties": {
        "norad_id": 66858,
        "name": "STARLINK-35118",
        "group": "last-30-days",
        "lat": -41.9164834179383,
        "lon": -56.7994339253188,
        "alt_km": 401.78448272285186,
        "timestamp": "2025-12-24T20:42:19.746638+00:00",
        "meta_object_name": "STARLINK-35118",
        "meta_object_id": "2025-281L",
        "meta_epoch": "2025-12-24T06:00:02.000160",
        "meta_mean_motion": 15.58612241,
        "meta_eccentricity": 0.00012219,
        "meta_inclination": 43,
        "meta_ra_of_asc_node": 52.3639,
        "meta_arg_of_pericenter": 279.2156,
        "meta_mean_anomaly": 140.2487,
        "meta_ephemeris_type": 0,
        "meta_classification_type": "U",
        "meta_norad_cat_id": 66858,
        "meta_element_set_no": 999,
        "meta_rev_at_epoch": 302,
        "meta_bstar": -0.029290077,
        "meta_mean_motion_dot": -0.02059952,
        "meta_mean_motion_ddot": 0,
        "tle_line1": "1 66858U 25281L   25358.25002315 -.02059952  00000+0 -29290-1 0  9998",
        "tle_line2": "2 66858  43.0000  52.3639 0001221 279.2156 140.2487 15.58612241  3024"
      },
      "geometry": {
        "type": "Point",
        "coordinates": [
          -56.7994339253188,
          -41.9164834179383
        ]
      }
    },
    {
      "type": "Feature",
      "properties": {
        "norad_id": 66859,
        "name": "STARLINK-35646",
        "group": "last-30-days",
        "lat": -42.23772064182042,
        "lon": -54.26663384283705,
        "alt_km": 401.7294368809098,
        "timestamp": "2025-12-24T20:42:19.746650+00:00",
        "meta_object_name": "STARLINK-35646",
        "meta_object_id": "2025-281M",
        "meta_epoch": "2025-12-24T06:00:02.000160",
        "meta_mean_motion": 15.58610601,
        "meta_eccentricity": 0.00013316,
        "meta_inclination": 43.0001,
        "meta_ra_of_asc_node": 52.3594,
        "meta_arg_of_pericenter": 279.1742,
        "meta_mean_anomaly": 142.2132,
        "meta_ephemeris_type": 0,
        "meta_classification_type": "U",
        "meta_norad_cat_id": 66859,
        "meta_element_set_no": 999,
        "meta_rev_at_epoch": 324,
        "meta_bstar": -0.029353009,
        "meta_mean_motion_dot": -0.02063859,
        "meta_mean_motion_ddot": 0,
        "tle_line1": "1 66859U 25281M   25358.25002315 -.02063859  00000+0 -29353-1 0  9990",
        "tle_line2": "2 66859  43.0001  52.3594 0001331 279.1742 142.2132 15.58610601  3249"
      },
      "geometry": {
        "type": "Point",
        "coordinates": [
          -54.26663384283705,
          -42.23772064182042
        ]
      }
    },
    {
      "type": "Feature",
      "properties": {
        "norad_id": 66860,
        "name": "STARLINK-35987",
        "group": "last-30-days",
        "lat": -42.97956067425804,
        "lon": -41.30412568046505,
        "alt_km": 401.7713065809776,
        "timestamp": "2025-12-24T20:42:19.746659+00:00",
        "meta_object_name": "STARLINK-35987",
        "meta_object_id": "2025-281N",
        "meta_epoch": "2025-12-24T06:00:02.000160",
        "meta_mean_motion": 15.58603345,
        "meta_eccentricity": 0.0001197,
        "meta_inclination": 43.0001,
        "meta_ra_of_asc_node": 52.3363,
        "meta_arg_of_pericenter": 281.0493,
        "meta_mean_anomaly": 149.9245,
        "meta_ephemeris_type": 0,
        "meta_classification_type": "U",
        "meta_norad_cat_id": 66860,
        "meta_element_set_no": 999,
        "meta_rev_at_epoch": 324,
        "meta_bstar": -0.029176701,
        "meta_mean_motion_dot": -0.02013886,
        "meta_mean_motion_ddot": 0,
        "tle_line1": "1 66860U 25281N   25358.25002315 -.02013886  00000+0 -29177-1 0  9991",
        "tle_line2": "2 66860  43.0001  52.3363 0001197 281.0493 149.9245 15.58603345  3246"
      },
      "geometry": {
        "type": "Point",
        "coordinates": [
          -41.30412568046505,
          -42.97956067425804
        ]
      }
    },
    {
      "type": "Feature",
      "properties": {
        "norad_id": 66861,
        "name": "STARLINK-35991",
        "group": "last-30-days",
        "lat": -42.71089553515665,
        "lon": -49.112355636378936,
        "alt_km": 401.6988626749162,
        "timestamp": "2025-12-24T20:42:19.746669+00:00",
        "meta_object_name": "STARLINK-35991",
        "meta_object_id": "2025-281P",
        "meta_epoch": "2025-12-24T06:00:02.000160",
        "meta_mean_motion": 15.58600974,
        "meta_eccentricity": 0.00013378,
        "meta_inclination": 42.9999,
        "meta_ra_of_asc_node": 52.351,
        "meta_arg_of_pericenter": 282.4142,
        "meta_mean_anomaly": 142.8072,
        "meta_ephemeris_type": 0,
        "meta_classification_type": "U",
        "meta_norad_cat_id": 66861,
        "meta_element_set_no": 999,
        "meta_rev_at_epoch": 324,
        "meta_bstar": -0.029062448,
        "meta_mean_motion_dot": -0.02006933,
        "meta_mean_motion_ddot": 0,
        "tle_line1": "1 66861U 25281P   25358.25002315 -.02006933  00000+0 -29062-1 0  9990",
        "tle_line2": "2 66861  42.9999  52.3510 0001337 282.4142 142.8072 15.58600974  3242"
      },
      "geometry": {
        "type": "Point",
        "coordinates": [
          -49.112355636378936,
          -42.71089553515665
        ]
      }
    },
    {
      "type": "Feature",
      "properties": {
        "norad_id": 66862,
        "name": "STARLINK-35974",
        "group": "last-30-days",
        "lat": -42.50279892605991,
        "lon": -51.7061761660198,
        "alt_km": 401.85417200670054,
        "timestamp": "2025-12-24T20:42:19.746679+00:00",
        "meta_object_name": "STARLINK-35974",
        "meta_object_id": "2025-281Q",
        "meta_epoch": "2025-12-24T06:00:02.000160",
        "meta_mean_motion": 15.58611526,
        "meta_eccentricity": 0.00011207,
        "meta_inclination": 43.0001,
        "meta_ra_of_asc_node": 52.3546,
        "meta_arg_of_pericenter": 277.0375,
        "meta_mean_anomaly": 146.2668,
        "meta_ephemeris_type": 0,
        "meta_classification_type": "U",
        "meta_norad_cat_id": 66862,
        "meta_element_set_no": 999,
        "meta_rev_at_epoch": 313,
        "meta_bstar": -0.029401778,
        "meta_mean_motion_dot": -0.02066848,
        "meta_mean_motion_ddot": 0,
        "tle_line1": "1 66862U 25281Q   25358.25002315 -.02066848  00000+0 -29402-1 0  9990",
        "tle_line2": "2 66862  43.0001  52.3546 0001120 277.0375 146.2668 15.58611526  3138"
      },
      "geometry": {
        "type": "Point",
        "coordinates": [
          -51.7061761660198,
          -42.50279892605991
        ]
      }
    }
  ]
}